OBJECT_NAME,OBJECT_ID,EPOCH,MEAN_MOTION,ECCENTRICITY,INCLINATION,RA_OF_ASC_NODE,ARG_OF_PERICENTER,MEAN_ANOMALY,EPHEMERIS_TYPE,CLASSIFICATION_TYPE,NORAD_CAT_ID,ELEMENT_SET_NO,REV_AT_EPOCH,BSTAR,MEAN_MOTION_DOT,MEAN_MOTION_DDOT
SWARM A,2013-067B,2026-06-12T18:25:14.615328,15.50872406,.0002992,87.3336,57.8838,93.9406,266.2197,0,U,39452,999,70556,.22759E-3,.1319E-3,0
SWARM C,2013-067C,2026-06-12T19:57:59.457024,15.50870197,.0002992,87.3335,56.4410,94.3271,265.8332,0,U,39453,999,70553,.19028E-3,.11032E-3,0
BRITE-CA1 (TORONTO),2014-033L,2026-06-12T19:48:19.085760,14.72671113,.0077305,97.9733,292.8337,291.2366,68.0597,0,U,40020,999,64157,.1054E-3,.649E-5,0
OCO 2,2014-035A,2026-06-12T19:54:11.030112,14.57107976,.0001492,98.2018,105.1887,86.2847,273.8522,0,U,40059,999,63541,.91111E-4,.365E-5,0
BRITE-PL2 (HEWELIUSZ),2014-049B,2026-06-12T19:41:43.144800,14.94580724,.0015131,97.9093,275.7870,121.4763,238.7938,0,U,40119,999,64079,.13548E-3,.1409E-4,0
MMS 1,2015-011A,2026-06-12T22:00:01.998720,0.28381524,.8322112,72.1478,348.8395,167.3668,222.9318,0,U,40482,999,138,0,-.233E-5,0
MMS 2,2015-011B,2026-06-12T22:00:01.998720,0.28381542,.8322895,72.1479,348.8417,167.3724,222.9203,0,U,40483,999,138,0,-.233E-5,0
MMS 3,2015-011C,2026-06-12T20:00:01.999008,0.28380423,.8321985,72.1503,348.8470,167.3636,214.4140,0,U,40484,999,138,0,-.22E-5,0
MMS 4,2015-011D,2026-06-12T20:00:01.999008,0.28380414,.8321593,72.1464,348.8428,167.3715,214.4024,0,U,40485,999,138,0,-.22E-5,0
ASTROSAT,2015-052A,2026-06-12T20:28:39.275040,14.82500910,.0008203,5.9957,186.5553,329.7904,30.1751,0,U,40930,999,57918,.10622E-3,.1544E-4,0
DAMPE,2015-078A,2026-06-12T20:29:54.626208,15.30775248,.0013801,97.4558,169.2993,90.6291,269.6531,0,U,41173,999,58388,.51116E-4,.1446E-4,0
PISAT,2016-059B,2026-06-12T05:45:07.820640,14.68975851,.00280013,97.8179,163.9051,219.0521,140.8664,0,U,41784,999,51901,.15687719E-3,.877E-5,0
HXMT (HUIYAN),2017-034A,2026-06-12T06:24:02.599200,15.18448317,.00302229,43.0133,210.4397,114.8323,245.5673,0,U,42758,999,49691,.21171997E-3,.4248E-4,0
FLYING LAPTOP,2017-042G,2026-06-12T20:27:56.452608,15.01121887,.0019379,97.4663,319.5533,135.6939,224.5841,0,U,42831,999,48580,.41648E-3,.5297E-4,0
ZHANGHENG 1-01 (CSES-1),2018-015C,2026-06-12T20:41:31.560576,15.20759142,.0017037,97.6860,329.4343,282.7602,77.1728,0,U,43194,999,46398,.33922E-3,.7426E-4,0
SALSAT,2020-068K,2026-06-12T18:18:42.355008,15.29738569,.0008406,97.8846,166.5583,326.8032,33.2678,0,U,46495,999,31468,.2979E-3,.8507E-4,0
IXPE,2021-121A,2026-06-12T20:00:01.999008,15.10209493,.0007082,0.2312,350.1918,15.3993,322.5152,0,U,49954,999,581,.64333E-3,.11771E-3,0
SMILE,2026-109A,2026-05-24T15:40:35.120928,14.57062785,.00091232,70.0007,229.2745,259.5159,100.4951,0,U,69123,999,80,-.42378883E-3,-.1976E-4,0
