SWARM A                 
1 39452U 13067B   26163.76753027  .00013190  00000+0  22759-3 0  9996
2 39452  87.3336  57.8838 0002992  93.9406 266.2197 15.50872406705561
SWARM C                 
1 39453U 13067C   26163.83193816  .00011032  00000+0  19028-3 0  9997
2 39453  87.3335  56.4410 0002992  94.3271 265.8332 15.50870197705535
BRITE-CA1 (TORONTO)     
1 40020U 14033L   26163.82522090  .00000649  00000+0  10540-3 0  9994
2 40020  97.9733 292.8337 0077305 291.2366  68.0597 14.72671113641572
OCO 2                   
1 40059U 14035A   26163.82929433  .00000365  00000+0  91111-4 0  9999
2 40059  98.2018 105.1887 0001492  86.2847 273.8522 14.57107976635414
BRITE-PL2 (HEWELIUSZ)   
1 40119U 14049B   26163.82063825  .00001409  00000+0  13548-3 0  9992
2 40119  97.9093 275.7870 0015131 121.4763 238.7938 14.94580724640795
MMS 1                   
1 40482U 15011A   26163.91668980 -.00000233  00000+0  00000+0 0  9998
2 40482  72.1478 348.8395 8322112 167.3668 222.9318  0.28381524  1387
MMS 2                   
1 40483U 15011B   26163.91668980 -.00000233  00000+0  00000+0 0  9999
2 40483  72.1479 348.8417 8322895 167.3724 222.9203  0.28381542  1388
MMS 3                   
1 40484U 15011C   26163.83335647 -.00000220  00000+0  00000+0 0  9998
2 40484  72.1503 348.8470 8321985 167.3636 214.4140  0.28380423  1380
MMS 4                   
1 40485U 15011D   26163.83335647 -.00000220  00000+0  00000+0 0  9999
2 40485  72.1464 348.8428 8321593 167.3715 214.4024  0.28380414  1384
ASTROSAT                
1 40930U 15052A   26163.85323235  .00001544  00000+0  10622-3 0  9995
2 40930   5.9957 186.5553 0008203 329.7904  30.1751 14.82500910579180
DAMPE                   
1 41173U 15078A   26163.85410447  .00001446  00000+0  51116-4 0  9990
2 41173  97.4558 169.2993 0013801  90.6291 269.6531 15.30775248583881
PISAT                   
1 41784U 16059B   26163.23967385  .00000877  00000+0  15688-3 0  9998
2 41784  97.8179 163.9051 0028001 219.0521 140.8664 14.68975851519012
HXMT (HUIYAN)           
1 42758U 17034A   26163.26669675  .00004248  00000+0  21172-3 0  9999
2 42758  43.0133 210.4397 0030222 114.8323 245.5673 15.18448317496912
FLYING LAPTOP           
1 42831U 17042G   26163.85273672  .00005297  00000+0  41648-3 0  9998
2 42831  97.4663 319.5533 0019379 135.6939 224.5841 15.01121887485804
ZHANGHENG 1-01 (CSES-1) 
1 43194U 18015C   26163.86217084  .00007426  00000+0  33922-3 0  9990
2 43194  97.6860 329.4343 0017037 282.7602  77.1728 15.20759142463980
SALSAT                  
1 46495U 20068K   26163.76299022  .00008507  00000+0  29790-3 0  9998
2 46495  97.8846 166.5583 0008406 326.8032  33.2678 15.29738569314684
IXPE                    
1 49954U 21121A   26163.83335647  .00011771  00000+0  64333-3 0  9993
2 49954   0.2312 350.1918 0007082  15.3993 322.5152 15.10209493  5813
SMILE                   
1 69123U 26109A   26144.65318427 -.00001976  00000+0 -42379-3 0  9994
2 69123  70.0007 229.2745 0009123 259.5159 100.4951 14.57062785   802
